,Eq_ID,Magnitude,Rhypo,depth,pga_H,pga_V,pgd_H,pgd_V,pgv_H,pgv_V,site_condn_S
136,55,2.5,37.2900128220674,17.0,0.00311449542974516,0.000748678146684542,0.0796022032983266,0.0343345589977543,0.0379338731269759,0.0124840280368352,0
137,55,2.5,36.1953253720513,17.0,0.00319540467908399,0.00130515781193534,0.0325920944646781,0.202880719936666,0.0369357089250666,0.0251635377723284,2
138,55,2.5,40.9874640980611,17.0,0.00885229733248113,0.0078918289252502,0.0322799970838709,0.0110514859679114,0.173109395227602,0.0933021696563963,0
139,55,2.5,31.6336235479702,17.0,0.0201849113679402,0.0130190304441605,0.0205770167040125,0.0269495122026584,0.219231590635439,0.148166591130132,2
140,55,2.5,28.5420537284265,17.0,0.00268307262505927,0.00298703533730434,0.0740202783596055,0.0693763723911535,0.0334083601930602,0.033785963035437,0
141,57,4.5,35.058130585734,35.0,0.0144443730930837,0.012325519912297,0.428014904648164,0.0308352374124747,0.507814212546035,0.143180154046103,0
142,57,4.5,177.019989924929,35.0,0.00339830973239077,0.00244883887762685,0.10997108263268,0.129214195899721,0.0915747393665081,0.0823971167085439,2
143,57,4.5,41.9410682120788,35.0,0.00506311679446742,0.00431875729924404,0.0631972549361752,0.0610187597429987,0.138403578709639,0.0680877569204734,0
144,57,4.5,63.1726183584175,35.0,0.0127350583196128,0.00616194308390533,0.0480709479838924,0.0559025055296596,0.397145530397707,0.136752009340412,0
145,57,4.5,52.9642360496421,35.0,0.00303646207409629,0.0019954857561395,0.0584616493802145,0.0793700210215881,0.12753648077281,0.0534799763754629,0
146,57,4.5,72.944520331753,35.0,0.00464582840997091,0.0102528606910921,0.070339463155103,0.0314653951552156,0.179247350641042,0.27054049144653,0
147,57,4.5,166.348523582472,35.0,0.0030340283009231,0.00162818251384789,0.0336386281616344,0.0804325536004476,0.0566279627019494,0.0372219081071784,2
148,57,4.5,84.4053578030833,35.0,0.00529935631967691,0.00790100355158615,0.088472117172152,0.0662837034396605,0.231439049727791,0.198742385685798,0
149,57,4.5,73.1222015018571,35.0,0.00833867589890639,0.00566352341255132,1.22425176136538,0.702344515271364,0.426014083564046,0.197814598237622,0
150,57,4.5,270.140142917632,35.0,0.000708889204440553,0.000357566198103627,0.092736738245617,0.0390664905687704,0.0310800510966646,0.0213646544860103,0
151,57,4.5,84.5473767294561,35.0,0.00325411359970348,0.00301265874145182,0.0792607709471788,0.0504478843530614,0.0828903838009189,0.0585977430998329,0
152,57,4.5,167.422901027134,35.0,0.003335166749737,0.00736529686061166,0.0163639515720053,0.0298081837706117,0.119015097041175,0.231688039403744,0
153,58,3.9,52.2511797784011,8.0,0.00294590786362988,0.00240030008766399,0.120653104041472,0.0822009315154764,0.0891492529818043,0.0659455897079621,2
154,58,3.9,17.2263724229687,8.0,0.0132808897802414,0.0103060273519602,0.0705419640389661,0.0446722180055374,0.559757303960048,0.214737559857706,0
155,58,3.9,76.8460028019891,8.0,0.000639736713056812,0.000501393071955498,0.0431507257786562,0.0254648378398488,0.0276914278250617,0.0163752785100519,0
156,58,3.9,8.98008064130296,8.0,0.0203722391106916,0.0336972658750515,0.0678444275873806,0.0439753485691927,0.514239290634524,0.527183825957693,2
157,59,4.7,68.2444536313845,43.8,0.00303607740639406,0.00193199968600141,0.0546692344222254,0.0832037346909609,0.107854654690374,0.0450327384316003,2
158,59,4.7,50.2763277633553,43.8,0.0409547340774817,0.0381473964603847,0.0843128453467452,0.0872560540899282,0.820808078019458,0.476013709801582,2
159,59,4.7,154.668995332655,43.8,0.000512519618662797,0.000333318293445336,0.0709101428456564,0.0294567832561051,0.0247635646643246,0.0140732040928595,0
160,59,4.7,164.010548781552,43.8,0.00213894364571925,0.0024874220664183,0.050100652998552,0.108458371354249,0.0845049589139147,0.0590367089791051,0
161,60,3.6,70.7212225304264,10.0,0.00999072045186117,0.0162958915526485,0.0464236378009875,0.0305243136558185,0.213585780036853,0.225822511594107,2
162,60,3.6,48.4472379777095,10.0,0.0126837424328751,0.00667653259716064,0.0419786208285134,0.0594663397611267,0.264824408112844,0.107540628682294,2
163,61,5.2,61.3264898780722,14.2,0.00259757016133276,0.00138238753972407,0.0410509013190703,0.0462465806379095,0.0895203424928722,0.0520312023693414,2
164,61,5.2,36.3675130102603,14.2,0.00619091446103471,0.00600087900983961,0.0530293143581177,0.0549599299326097,0.117471254449068,0.0834429590981105,2
165,62,4.3,19.2704425065438,6.6,0.0060859713440032,0.00508355132369146,0.0810044848699887,0.0247886332728548,0.142061817693979,0.110554713539926,0
166,62,4.3,35.0328520693081,6.6,0.00942832492811875,0.00798352605642032,0.049490527774881,0.0334015317970471,0.20211259500155,0.142090607223234,2
167,62,4.3,29.9066317052161,6.6,0.00969913231558611,0.00752847312041132,0.0339011401766965,0.0263623869683912,0.18623416832383,0.101757466876793,0
168,62,4.3,164.009085872759,6.6,0.000834406385519038,0.00047241082097846,0.0637725065412313,0.0660748044326565,0.0261600933269763,0.0155587742068383,0
169,65,6.5,963.499068835847,167.0,0.00251051871488665,0.000990298632206609,0.0745310659490944,0.104363674728949,0.137119583062642,0.0665917681741829,0
170,65,6.5,886.586031110962,167.0,0.0041841125455143,0.00156985729324161,0.150178905366123,0.0875764679720935,0.145120979284435,0.0615726876324335,2
171,65,6.5,685.16878906437,167.0,0.00252542768920566,0.000638826163080939,0.127784809288908,0.0613017847313352,0.231916103006261,0.0479736846768602,2
172,65,6.5,996.585181765851,167.0,0.00388174967017872,0.000714116724286505,0.157200664297875,0.0841674514691667,0.339132545025596,0.0681344593124021,0
173,65,6.5,746.722320288279,167.0,0.00441077480564329,0.00458072047697811,0.102401204994926,0.0882807239348825,0.32067864986343,0.252186893441641,2
174,65,6.5,872.448498449602,167.0,0.00301332123848684,0.000715088208175284,0.096195741194339,0.140778174930632,0.1842619720406,0.0419438920652454,0
175,65,6.5,798.958518774992,167.0,0.00357514098948807,0.00322653857429262,0.377152372897204,0.645982390763058,0.287042010728286,0.266549480463721,2
176,65,6.5,782.605899375378,167.0,0.00358067825669137,0.00253212971830909,0.334864866104495,0.050218136219147,0.283167950632901,0.16307559558503,2
177,65,6.5,1020.19520870997,167.0,0.00189210669854937,0.000559019414402341,0.4852271551294,0.0342854442426194,0.20421291045691,0.0577662053295004,0
178,65,6.5,816.905370944809,167.0,0.00375537164748798,0.00131836707449415,0.210233497712674,0.320087084312998,0.240460459036424,0.0753635628252566,0
179,67,7.4,1295.67871509263,5.0,0.00162524825311172,0.000939821283945269,0.333228929590005,0.0751789403989924,0.203099674535432,0.174455171471765,0
180,67,7.4,1173.60769114673,5.0,0.00191408681601793,0.000657733495690778,0.146706284648354,0.262701896541918,0.210487650701586,0.0965937363940626,0
181,67,7.4,1286.55128979714,5.0,0.000853661790876566,0.000609375717131611,0.193160140796479,0.273079952894879,0.11001755400497,0.165905431151789,2
182,67,7.4,1275.56042135513,5.0,0.0119698867986015,0.00701733376717734,2.66271421921598,1.07587153559775,1.63099034828322,0.856507755521135,0
183,67,7.4,1260.13159663594,5.0,0.0113421190711495,0.00492249886143294,0.641172959420902,0.745758843858562,1.00331709141186,0.296417369486556,0
184,67,7.4,1296.82717111835,5.0,0.0149153045527403,0.00488538870985809,2.33618070122278,0.322694180792664,0.910486881241779,0.780120017255957,0
185,67,7.4,1255.73121003819,5.0,0.00220728532552764,0.000959676636672921,0.2879025907196,0.140089442884956,0.315127332019929,0.162595827008371,0
186,67,7.4,1272.88240435742,5.0,0.00812831505436847,0.0037910990046665,2.63640530889169,1.24541570568093,1.51407661607505,0.606223126959846,0
187,67,7.4,1300.07240851275,5.0,0.019905690759965,0.0174766204417809,0.784667151293993,0.251094017629204,1.2402009847937,1.00685782967898,0
188,67,7.4,1343.9597743381,5.0,0.00158614301421911,0.0007088329646153,1.17391325946244,1.71550132107254,0.291394368263179,0.168196817176247,0
189,67,7.4,1254.75133770778,5.0,0.00316807429862541,0.00125619168489107,0.604481709887792,0.385171784299742,0.359791730919749,0.124971678939574,0
190,67,7.4,1290.81973672474,5.0,0.0124151853452956,0.00564044055470238,0.782974314397354,1.3080297851698,0.650948081355381,0.781088646775813,0
191,68,3.2,52.6012301022949,10.0,0.00241710535825853,0.00110205396433557,0.0981409134209211,0.0984325990915768,0.0277215252485182,0.0182136395752119,0
192,70,5.0,37.9752223409761,10.0,0.00378906131078051,0.00262018972284134,0.0611347075384268,0.0732846236991726,0.145087037030253,0.110850610886538,0
193,70,5.0,254.961563811991,10.0,0.00673221685745546,0.00541179711209154,0.0469936019905364,0.0262410576668427,0.178756327509308,0.072060935117609,1
194,70,5.0,155.872021205938,10.0,0.00404531623063583,0.00304397931426106,0.0712675212223234,0.0407462661487558,0.150610732400658,0.0834228626660857,2
195,70,5.0,142.804230046815,10.0,0.00671368865143811,0.00386940077800436,0.124897709684269,0.0511870672778654,0.257971229649822,0.135076213837575,0
196,70,5.0,31.7135561815472,10.0,0.010458489909588,0.0112048027786007,0.0722160504289515,0.0759323670272281,0.293034478526553,0.140282807301202,2
197,71,2.3,9.13110269563558,5.0,0.00662902231818384,0.0034628464528208,0.0468601501595073,0.0577048375455686,0.0556089473832773,0.0230943700127802,0
198,71,2.3,13.3371647810454,5.0,0.00329901561941009,0.000703905754302351,0.082744207113721,0.0325746214396424,0.0193562965352554,0.0104219513464033,2
199,72,3.3,360.516881209674,8.0,0.00567017087620241,0.00762486369751011,0.0712744190099799,0.0303108882230749,0.157200145347447,0.123259253122966,2
200,73,5.6,111.878020034317,17.4,0.0103695536467836,0.0077848457959602,0.161741565687537,0.143572031509702,0.567551708126169,0.255998787296876,2
201,73,5.6,104.088419701214,17.4,0.0104403304043638,0.00439512012137396,0.195970465864775,0.222785337466472,0.600645767155091,0.206993713066422,0
202,73,5.6,282.482613332655,17.4,0.0071086971847933,0.00258908677916088,0.132048543301933,0.144184721522021,0.345593878615946,0.0973122549526368,2
203,73,5.6,169.112145612198,17.4,0.0145518870814174,0.00906468641118528,0.271957591109834,0.0943044716370195,1.41492141300016,0.629747642614584,0
204,73,5.6,76.4744035851078,17.4,0.0246055555274954,0.0106568326105718,0.105799693744775,0.0716915690939415,0.826399609404271,0.462945800113759,2
205,73,5.6,54.6739813336636,17.4,0.0180751940671248,0.0129354188988268,0.331523450929884,0.24937040874892,0.928782449730873,0.512039277984144,2
206,73,5.6,276.999016666615,17.4,0.00327748732699298,0.00154921703481001,0.0619249872490466,0.131189381186733,0.194932150972948,0.0709705995870899,0
207,73,5.6,262.334813594816,17.4,0.00739179673496274,0.00220523223937143,0.0653472019180328,0.0416334435885524,0.539850156474032,0.123321674136382,0
208,73,5.6,40.7096226336257,17.4,0.135331122916119,0.0572783367469241,0.423381086477497,0.116694688084539,7.64700192224495,1.39924267278425,1
209,73,5.6,154.908545369335,17.4,0.0198731415123285,0.0130239567892742,0.230605811165704,0.091669018778016,1.09241960862962,0.589247175391708,2
210,73,5.6,159.948670007421,17.4,0.0107436694766688,0.0058472577898591,0.216184167384271,0.134958817091238,0.624097353986962,0.426125720035296,2
211,73,5.6,112.156601813865,17.4,0.023915497114338,0.00842661505457563,0.496699648109705,0.156386604048891,1.51534544701928,0.319605516395426,0
212,73,5.6,221.126951960114,17.4,0.0052989239515218,0.00413191328289252,0.0996652803276878,0.161713106442611,0.289682159219661,0.172010943070756,0
213,73,5.6,184.568052976537,17.4,0.00981699919894005,0.00740420730464938,0.535163221641787,0.267655445051124,0.545427341347331,0.191900869267303,0
214,73,5.6,367.546446054213,17.4,0.00181115930365317,0.00132044041160988,0.103270658520776,0.0504707722464943,0.175425411799387,0.061308064188951,0
215,73,5.6,76.9637943902878,17.4,0.0225201582021335,0.0131779711562248,0.175064554555263,0.118611409027717,0.782065500321492,0.399754045665907,2
216,73,5.6,59.9736378816429,17.4,0.0617020748693438,0.0377582477437851,0.147508852320128,0.154896304562144,1.42703087116172,0.836709625569708,2
217,73,5.6,88.5980728853769,17.4,0.00698605811177384,0.00392007582435009,0.257300465609945,0.0840531520111668,0.351390473399649,0.257387542511069,2
218,73,5.6,281.640896785669,17.4,0.00419431218843955,0.00162049323464422,0.299525320267411,0.221986733687827,0.238918661382896,0.0805984723179952,0
219,73,5.6,191.251997806239,17.4,0.00708382963354982,0.00368491689326338,0.131203343235457,0.0469324876580982,0.372207738183343,0.173979854066666,2
220,73,5.6,428.483786060903,17.4,0.00269489483264487,0.00112150411339054,0.0571019789079258,0.0371191497057211,0.214053475769387,0.0913975253536798,0
221,73,5.6,90.5240498572655,17.4,0.0118752242397707,0.0079621191854439,0.219948714833216,0.140817589331336,0.578009177889626,0.281655180608746,0
222,73,5.6,243.72865427983,17.4,0.00632717421854285,0.00416673025901667,0.128872721298431,0.0596628753235123,0.352768458418084,0.220241600816359,2
223,73,5.6,152.509698902638,17.4,0.00969799113375289,0.00563470468482441,0.39883840879566,0.396194467142063,0.733490626529348,0.254664905702655,0
224,74,4.6,31.5767126704533,23.0,0.00752811340229958,0.00781504824324963,0.0621356786416131,0.0666115948850725,0.184160977821232,0.178014124638001,2
225,76,3.7,137.338949572054,10.0,0.0230121941266048,0.0131784725958369,0.0538770682184374,0.0421670139316289,0.577231586676432,0.144687740142004,0
226,76,3.7,61.6421460445962,10.0,0.0117661649266366,0.0101440841629238,0.132252806892006,0.05351425735892,0.181965040306892,0.10810796040991,2
227,77,4.8,106.910456179111,26.6,0.00400893914436085,0.00183500599903793,0.0385783280194085,0.0539335965319562,0.181256263141284,0.0640445359302066,2
228,77,4.8,122.120650863993,26.6,0.00606697512831219,0.00346369474909003,0.0947970591975357,0.142121708049057,0.215233598582179,0.0968811127192671,2
229,77,4.8,148.517568620058,26.6,0.00161829115531884,0.000579345452816128,0.0440575459733714,0.0468003059429911,0.0558525666600014,0.0221921021179207,2
230,77,4.8,147.367348371531,26.6,0.0025727941751201,0.00155518142827266,0.0690749622284338,0.0542587245981452,0.0942031767467503,0.0451570068797836,0
231,77,4.8,29.3627414718946,26.6,0.0423130435152843,0.0336563585700249,0.251398916105044,0.137900552438466,2.31061397336661,1.02923930888568,0
232,77,4.8,134.606520219528,26.6,0.00348369028703323,0.00235606200335514,0.0984337195196205,0.0477724952895869,0.174875408415979,0.0509247167968685,0
233,77,4.8,114.275984119347,26.6,0.0099391228243439,0.00455889180877684,0.133275280917562,0.0389834738697478,0.527382972005208,0.146238872431059,0
234,77,4.8,57.589474248463,26.6,0.0064350575716692,0.0051490956265733,0.106666812700928,0.120035743655503,0.221099228382816,0.157921688767503,2
235,77,4.8,118.80956218072,26.6,0.00568426376139797,0.00307926381711952,0.0625397915000891,0.0401746001831812,0.318913662766365,0.141790693599794,0
236,77,4.8,163.007928163108,26.6,0.00199915616792988,0.0014978813704252,0.056669222070429,0.0836287968360156,0.104194203299453,0.0449902581792494,0
237,77,4.8,97.7926684982115,26.6,0.00784910409630015,0.00769106868749586,0.0883429693656159,0.0462683952305093,0.33704144650708,0.221817786915592,2
238,77,4.8,169.233823116283,26.6,0.00168157757192399,0.00115534645017694,0.177072596120217,0.0396774579021287,0.0905742470376318,0.0292982308524486,0
239,77,4.8,160.091696789677,26.6,0.0022354506838931,0.000856469268066099,0.060768041536463,0.0724959990428961,0.080650102143717,0.0246048012437384,0
240,78,4.0,25.2311153366856,23.0,0.0112182556495856,0.011087707582011,0.0650074731214637,0.0416453976683501,0.212281656082665,0.112788185210778,0
241,79,4.4,69.7256026887417,21.0,0.00552630643584326,0.00349319153849269,0.0719161654098446,0.0577757789480781,0.244169620361177,0.132356288164059,2
242,80,5.2,26.8880538208866,8.0,0.0272056286811996,0.0143219434140481,0.0476312294032119,0.0404710950663109,0.305318102985754,0.161766936273852,0
243,80,4.2,27.8404480237595,8.0,0.0362335337698085,0.0167772371655759,0.0923996166439544,0.0516739337036613,0.427950617001931,0.213270275393096,0
244,80,6.7,20.8322790009787,8.0,0.0268693340190973,0.0106845816608614,0.067965451478464,0.110140230405961,0.439413195114585,0.142635216141431,2
245,80,5.0,24.3728664527961,8.0,0.0584699620578932,0.0271978428643407,0.109959039640222,0.0862265425178967,0.860243820792474,0.418779327637883,0
246,80,4.4,40.7083197091968,8.0,0.00807607173509809,0.00753889330667498,0.264169947835298,0.0220944213023455,0.174904230277526,0.17221290278523,0
247,80,5.2,24.4401279841125,8.0,0.0276181516470454,0.0107112052677016,0.0183599778914084,0.00511523646528266,0.411603921317245,0.13157566635612,2
248,80,5.2,12.0469626591589,8.0,0.00644826796935353,0.005765849738665,0.00406944553899573,0.00163915863269857,0.0568936706397188,0.0432071215124938,0
249,80,5.2,48.5976772247551,8.0,0.00996877913339274,0.00754281717902955,0.0481523163714785,0.0932891149983371,0.229855203723775,0.116084156152176,0
250,80,5.2,24.240837698219,8.0,0.0496981507555493,0.0427479035387133,0.0365973413595845,0.016648816494999,0.978586734941825,0.575315369605428,0
251,84,3.1,36.8562920980237,10.0,0.00351080903275219,0.00408818835202093,0.0985973289365428,0.0526475917863491,0.111658061770761,0.093721391527815,2
252,86,3.0,36.8562920980237,10.0,0.00222690500101938,0.00213590794319957,0.094114188697902,0.0256110689397871,0.07209061989292,0.038536535076428,2
253,87,3.7,9.5119788543745,5.0,0.0133939833548112,0.0110742335030283,0.0821921038720104,0.0356573032507616,0.349929178788179,0.185946205592675,0
254,89,3.6,52.3810167705148,10.0,0.00133777955364924,0.00279050269280648,0.0384461342138586,0.033671209967167,0.0351910770510854,0.0398907526836828,2
255,90,4.4,87.446317927072,10.0,0.00280230828399386,0.0015730201368655,0.12982994064579,0.0675504256046819,0.093177108202019,0.0344916535229596,2
256,90,4.4,89.3971118244918,10.0,0.00242671250098195,0.00125826991083531,0.0852433346968159,0.0364253431896312,0.0599334829909359,0.0259803692793991,2
257,91,3.5,40.6051052707441,5.0,0.00321236064407542,0.00221099554800502,0.0788101679610607,0.0274417234911398,0.0356470799549829,0.0302935976438477,0
258,91,3.5,21.8144807880685,5.0,0.00345058028032318,0.0026101365708893,0.0482060139818261,0.0384199726169801,0.040304356412352,0.0229785563294081,0
259,91,3.5,25.2744119040018,5.0,0.0086806516715998,0.00580719341544538,0.0607273358394148,0.0330867451220603,0.0827639019403946,0.05531853555544,0
260,91,3.5,27.4202736768008,5.0,0.00877133605873666,0.00176709351469198,0.0515372090954435,0.0458954996651604,0.0737033197140131,0.021366030994801,0
261,92,5.0,44.2209440158693,28.8,0.0300846278991714,0.0204482468475889,0.157126816491255,0.0865553647660818,1.31564395417385,0.447956605855581,0
262,99,4.6,82.9637428582321,16.5,0.00274770109500712,0.00176472943175899,0.0784864693812067,0.0300633136527281,0.0995100076012847,0.0414009628675423,2
263,100,5.4,534.482515286961,27.5,0.00186379133236611,0.00045975373700253,0.108837009402821,0.0690614405398425,0.0999628758903502,0.0299974650453827,0
264,101,4.0,60.9398078980684,57.0,0.0102865676188708,0.0100006518656232,0.0562661751986848,0.0518846861091773,0.132122394577885,0.107589411125126,0
265,102,5.0,274.529749211076,28.5,0.00180893533461146,0.00076123040195739,0.0776157493840003,0.0593704413381913,0.0643825853008335,0.0232337895644981,2
266,102,5.0,292.056148539728,28.5,0.00289980396369536,0.00123914020769359,0.106759613804482,0.0320808772799351,0.107302223391911,0.0379383040553808,2
267,102,5.0,328.68843614432,28.5,0.00153674123430561,0.00073151421475349,0.0589798194993496,0.0503169018662141,0.0662462795848387,0.0290737935700149,0
268,103,4.6,36.3508255645088,19.1,0.00735886963359777,0.00605057124333962,0.0904032760212611,0.0548457137712053,0.176072787502637,0.119079446906651,2
269,103,4.6,37.8787279043202,19.1,0.0132726939933078,0.0122565706046718,0.0420920271769995,0.0649053136489141,0.28235428399511,0.223559567460456,2
