,Eq_ID,Magnitude,Rhypo,depth,pga_H,pga_V,pgd_H,pgd_V,pgv_H,pgv_V,site_condn_S
270,103,4.6,158.931058232694,19.1,0.00282649048794044,0.00134441411983741,0.0749573878591228,0.035470976651,0.0983672147543374,0.0334983378887908,0
271,104,3.8,24.2492626652997,5.0,0.00331457991936248,0.00376385283999813,0.0377296285490286,0.0794397047407091,0.0532447209765868,0.0413514535066131,2
272,104,3.6,25.7493056180297,10.0,0.00310524047612232,0.00370417719278713,0.0495832192223327,0.0160340110388268,0.0646198062289773,0.0502566680631352,2
273,105,3.4,25.7493056180297,10.0,0.00191965208911824,0.00153732350984742,0.0322052576318331,0.0562645734971327,0.0376948744890744,0.0234391706667523,2
274,107,3.9,29.6164180289469,5.0,0.00281623472797716,0.00351289337687915,0.0515018103062797,0.0284555318533592,0.0391283353851532,0.0395289781411297,2
275,108,4.8,141.946229782897,37.1,0.00351492357849758,0.00153793671438081,0.0903217585317038,0.0737643396387126,0.091841610824998,0.0414003243749934,2
276,108,4.8,137.067632068576,37.1,0.00321279183492691,0.00282510050673551,0.0714425006002687,0.0622143454352567,0.084836547274103,0.0694052256322315,2
277,108,4.8,158.134941635818,37.1,0.00489632218784184,0.00248169762566902,0.123665106709239,0.0709985756642229,0.174027047213669,0.0555095218752237,2
278,109,4.0,30.8566397533064,10.0,0.00225864160194849,0.00337462822549283,0.0552835234633198,0.034891572786185,0.0607019086966393,0.0454620565737795,2
279,110,3.0,35.0651059602871,5.0,0.00538439272167453,0.00891193135570355,0.0460072623538552,0.0473769583644704,0.0827833847638753,0.0816279072799548,0
280,112,4.4,57.8697690919128,23.4,0.00384133681931479,0.00195988038374265,0.0657895116828268,0.0927024546424936,0.12713873372568,0.0589046850451162,0
281,112,4.4,59.4784222754094,23.4,0.00418599041194411,0.00275141193686676,0.114782829113997,0.112724295774442,0.190173214332572,0.0836360042235345,0
282,112,4.4,63.0628009146997,23.4,0.00277144731615597,0.0019627297500348,0.0510691216605788,0.0269506751531291,0.100667753143333,0.0571132293720053,2
283,112,4.4,30.3876094607449,23.4,0.0504980659752516,0.0402765885740872,0.135087080352711,0.0413304848665913,1.08043865686125,0.614586924125248,2
284,113,2.9,37.3170841443876,10.0,0.00492430876057408,0.00552283748297267,0.0647601677611719,0.0346655521583225,0.0741059893544163,0.0654670097477622,0
285,114,4.7,89.184713098162,10.0,0.0033698744076251,0.00186851644681926,0.039967664327427,0.0277964337261075,0.0781526200774577,0.0465953834343365,2
286,114,4.7,113.684166779562,10.0,0.00328843715354088,0.00142575560189016,0.102349299492403,0.112446584843449,0.122576199710039,0.0408803389842243,2
287,116,3.5,61.0712454259149,5.0,0.00644548672711844,0.00393261522225307,0.0729453127727418,0.0570162201673402,0.121266519203811,0.0675163887547036,2
288,117,3.8,142.784752142104,7.0,0.00358751546198647,0.00270292205413625,0.0354706771030547,0.0647455782316934,0.0747171305344843,0.0566213069285693,2
289,118,4.6,58.8169494201099,5.0,0.00243081345153345,0.00220393226313455,0.0694113106695502,0.0599452703914969,0.114154938838026,0.0730080746602838,0
290,118,4.6,135.059651761475,5.0,0.000447448552578777,0.000367304218217071,0.085068088014223,0.0313467446720775,0.0291552936692906,0.0119292421342949,0
291,118,4.6,30.7392717052466,5.0,0.0131610993760102,0.00844640162753125,0.0658809150542732,0.0891235007360799,0.228061841573767,0.137617686921247,2
292,119,3.2,22.4901491488775,11.4,0.00303264314048566,0.00346949612405745,0.0351203167908994,0.0326227409378327,0.0444937657007005,0.0389210873072208,2
293,121,7.8,1468.11830445946,46.0,0.00563634710117539,0.00602081308037433,0.0796395345528383,0.0527416614290638,0.211297998992677,0.115094441503381,0
294,121,7.8,1539.75174440409,46.0,0.00301037638558974,0.00229242559312095,0.121688504534614,0.133040362693926,0.186504073922795,0.0742192502440241,0
295,121,7.8,1465.88668071952,46.0,0.011771626361914,0.0108896883533411,0.162422130215004,0.11109581506662,0.733661318285164,0.228570996797955,0
296,121,7.8,1475.82897024685,46.0,0.00525669333953851,0.00371434988831132,0.110935996064249,0.0505812207621453,0.206561002082467,0.0902213932385203,0
297,121,7.8,1476.76612767972,46.0,0.00233767983327857,0.00138591982819312,0.157251407761897,0.732574033087283,0.275853872034291,0.117850533297676,2
298,121,7.8,1447.09583738167,46.0,0.00154498521507909,0.000630641931855933,0.367356177591478,0.475931789366999,0.147418732009131,0.0701918120032685,0
299,123,5.6,185.097069251825,9.8,0.0083075884975719,0.00793330686082041,0.215887558449229,0.127539544733742,0.469268156663549,0.244755221731104,1
300,123,5.6,68.5733853150018,9.8,0.0129129025465496,0.0107391323104262,0.0922782661513207,0.0920036065585271,0.368707322930705,0.303864137198803,2
301,123,5.6,334.712858150343,9.8,0.00328797770655932,0.0016518726448814,0.103021912798073,0.0182140987105114,0.142932750277865,0.0456438026502424,0
302,123,5.6,144.939085802892,9.8,0.0113579872277939,0.00572242782985602,0.268993525198331,0.615161616312355,0.614811329079502,0.168567805637403,0
303,123,5.6,123.595798917445,9.8,0.0123328965657609,0.0067015895175231,0.115259148328323,0.147176463301102,0.49050514303683,0.273134616020093,0
304,123,5.6,96.2977199701711,9.8,0.00422208988728747,0.00450864652867955,0.446443489863738,0.20857743845481,0.507906094512347,0.460304498901047,0
305,123,5.6,283.761323681608,9.8,0.00759591407980115,0.00343029167944428,0.0500604946842205,0.0696480820328526,0.186105498991206,0.0836406851163707,2
306,123,5.6,268.788166983561,9.8,0.00785851876879519,0.0018333998203302,0.195748227099169,0.126152958616736,0.354415266704761,0.0969761917946668,0
307,123,5.6,189.172470610091,9.8,0.00560244604715405,0.00379259944587191,0.108156853629667,0.110490171050891,0.239049822835388,0.119235162458546,0
308,123,5.6,260.54860742384,9.8,0.00613987257129546,0.00628528265268352,0.245403612057464,0.0510312171685764,0.47869425441478,0.286542382976496,1
309,123,5.6,129.570049391222,9.8,0.0122824254110827,0.00625417545724231,0.228098923119867,0.452641743754661,0.653766088362261,0.231225148087602,0
310,123,5.6,222.20684998264,9.8,0.0164265881174359,0.00695936885519337,0.476730777273577,0.243683480397614,0.950270921001577,0.223011227503945,0
311,123,5.6,210.184247469602,9.8,0.0152001499822713,0.00863770377104574,0.294357485796081,0.0867955787115042,0.742049128735696,0.260831425845638,0
312,123,5.6,130.512407752556,9.8,0.00859688813499922,0.0063260010995691,0.20744129466298,0.0949966439679979,0.370281493864463,0.240279020271979,0
313,123,5.6,93.4963577416269,9.8,0.00636071776997405,0.00625223687175312,0.161233972686103,0.140809803443003,0.319378481402401,0.24386613370908,0
314,123,5.6,252.938668678204,9.8,0.0132749742960748,0.00843823009777292,0.129690862805133,0.0764878447039628,0.533531434754917,0.225811026594428,2
315,123,5.6,412.871368247869,9.8,0.00175383722551774,0.000760117595855827,0.138381757062378,0.134717173972148,0.10206624075958,0.0360710078536728,0
316,123,5.6,273.661700215289,9.8,0.00262541630571377,0.00201132131196848,0.0995156488594051,0.0985914807240281,0.143714497546014,0.0909096015275473,0
317,123,5.6,201.687885216413,9.8,0.0108960020121826,0.0105926096496687,0.227792797196782,0.231373487422021,0.429549278437473,0.430128248272815,0
318,123,5.6,187.18497468813,9.8,0.0148792160953242,0.0103665186528761,0.46976410312122,0.0546488175889129,0.697288960868821,0.340266117098263,0
319,124,4.9,58.9766962010824,18.0,0.0213601609695076,0.023685387071247,0.0493577057027835,0.0503502944622355,0.506565278641823,0.357815751665218,2
320,125,4.0,33.2890895093333,10.0,0.00754355846129529,0.00473954965386723,0.0886397784850357,0.029866377153977,0.234689731708376,0.218988952169159,2
321,126,5.1,217.267437927304,17.6,0.00138858956552744,0.00383040918686829,0.0716239434771189,0.0524321429718146,0.0320878967084419,0.0425618921224325,2
322,127,4.4,49.7443213312027,25.5,0.00374450812451207,0.00578856796836999,0.0403574293543495,0.033070834365313,0.0493601890784831,0.0634534741631321,2
323,128,3.8,61.8006263323428,30.0,0.00174247610052304,0.00271932632561229,0.0323309790832792,0.036732227509761,0.0411151947475011,0.0394618600132114,2
324,129,5.1,121.750409903152,18.4,0.00505553312451108,0.00379337798762865,0.0636196955670662,0.0832358276701646,0.178972540360997,0.131853735068608,2
325,129,5.1,223.867245486015,18.4,0.00578662732695487,0.00164367337978729,0.149750266550743,0.10652773281721,0.408577754903981,0.126629521064458,0
326,129,5.1,105.168965973723,18.4,0.0020289676928549,0.00105427852245566,0.0869742082223485,0.0592548268397641,0.100456848613579,0.0603888930695682,0
327,131,4.4,51.8236604646586,31.0,0.0244194309562008,0.0107185203663207,0.0633227516886542,0.0614423165667761,0.764307025713917,0.201434793590325,0
328,131,4.4,68.6882974207903,31.0,0.0117206218343769,0.00445950845570742,0.0829352219078473,0.0339044863449576,0.446317472819938,0.0924673303904411,0
329,131,4.4,36.5770310801103,31.0,0.0191446886288213,0.0149372209581793,0.11161046136185,0.08842937080264,0.770838932319901,0.40122024417855,0
330,131,4.4,74.8267576537985,31.0,0.00955124904333148,0.00552219891259173,0.102231390525624,0.0774140978975848,0.507397258935871,0.141023120902263,0
331,131,4.4,103.913494896741,31.0,0.0034906122417553,0.00290153008039831,0.0800066949135431,0.059916436726752,0.169489817338537,0.0577733467877467,0
332,131,4.4,72.8077356190005,31.0,0.00914664767984404,0.0118092465665306,0.057877500855755,0.0808264797808937,0.335772831621965,0.243001920088781,0
333,131,4.4,148.510717257851,31.0,0.00442599578049818,0.00493689133792188,0.0607242775198983,0.122978664883162,0.132609732531609,0.0948660885344625,2
334,131,4.4,245.393953261805,31.0,0.000918185657010743,0.000553565203900182,0.147222212953547,0.061764912833933,0.0491266639248697,0.02022165478318,0
335,132,3.5,22.4940673957492,11.0,0.00934066402874603,0.00798012699568115,0.0983732882757329,0.071677825356053,0.139943628431634,0.11455683591319,2
336,134,5.5,391.390652313071,80.0,0.00255785123761741,0.00206202506883151,0.0383553864278285,0.0325067943136077,0.0554502180797381,0.0410211947157634,2
337,134,5.5,817.07620893479,80.0,0.00206028123372303,0.00093813186490157,0.101954019719683,0.182917004394434,0.0379423139570654,0.0452872352263434,2
338,134,5.5,806.478659386548,80.0,0.00152298798850958,0.000764756959488711,0.112103146815303,0.0774041625777818,0.0297979167518224,0.0258585664191838,0
339,134,5.5,795.038072059648,80.0,0.00132104903098141,0.000920629646121165,0.109249007631106,0.0568552566315676,0.0361132617650139,0.0269182264078072,0
340,136,4.9,128.845010269298,10.0,0.0014893268857746,0.00219453872892798,0.0470455922538417,0.0410912113165122,0.0581739010315868,0.0497877903783571,2
341,137,3.1,34.7722897809355,10.0,0.00392901742819999,0.00183419821035283,0.0148898641436058,0.0296797741534978,0.0496755804524791,0.0288759973026575,0
342,137,3.1,35.2123267724489,10.0,0.00292110856827465,0.00124590385767527,0.108791173976509,0.0376943853327678,0.0403846384441222,0.018065342074468,0
343,137,3.1,19.6735876481938,10.0,0.00303915626851633,0.00111576803311586,0.0372606217553843,0.068131562212194,0.0301901777800934,0.0161445227458856,2
344,137,3.1,23.5043490533962,10.0,0.00720955950525561,0.00497491024848927,0.0545363502182953,0.0862054323714612,0.0863047233620708,0.0673092793383879,0
345,137,3.1,21.1277749725529,10.0,0.00774385847127905,0.00654904889886985,0.0795454469502207,0.0726564076224557,0.0740017114514849,0.0641412800542563,0
346,137,3.1,10.0437699185108,10.0,0.00657749365983409,0.00486705473624195,0.012224595746599,0.00656289113684584,0.121678033425092,0.0707086178741063,2
347,137,3.1,21.6394732162003,10.0,0.00530627334809834,0.00303235359061459,0.143098124918674,0.191939671119563,0.0592173165024111,0.0452544639598425,0
348,137,3.1,22.9265163020434,10.0,0.00153235825923875,0.000671192609020209,0.00840548861173812,0.00664633370748663,0.0207229533359574,0.00773380319682785,2
349,137,3.1,22.2053418247847,10.0,0.0032429915484697,0.00379207926400576,0.033251638418459,0.109907126142648,0.0347924448807848,0.0408614744593505,0
350,137,3.1,14.4119668685628,10.0,0.00650338035418165,0.00433224891043915,0.0469450914476951,0.03533828318888,0.0869502258137259,0.0520879165973354,0
351,138,3.3,14.3088278217573,10.0,0.00274172786292216,0.00250567177737691,0.00588632257920503,0.00682451932518784,0.0576676596071453,0.0379695289888888,2
352,138,3.3,19.0003961116878,10.0,0.017573577202078,0.00693908395262266,0.172902739165713,0.0953487396708635,0.176528125561956,0.0991354412021157,2
353,138,3.3,19.0003961116878,10.0,0.0043469118212137,0.00219895629804549,0.00614623184887626,0.0110466256107214,0.048399555469547,0.0207756251709662,2
354,138,3.3,30.2634519431094,10.0,0.0252510798502843,0.0181352625938897,0.0211933297314618,0.0150277385788713,0.27315511837412,0.161993793302243,0
355,138,3.3,33.2682415279495,10.0,0.00987148065232664,0.00596376756328969,0.00550104322157857,0.00551200907412943,0.117426924215238,0.0520116225149328,2
356,138,3.3,18.6412920030857,10.0,0.0294402174460468,0.00713534219857983,0.0170833736176148,0.005061165217167,0.249725711114873,0.0962459699094735,0
357,138,3.3,32.0120026291258,10.0,0.00929434329271995,0.00779914728088182,0.0742957158586237,0.0281134152718617,0.0981768854645729,0.0820211257072412,0
358,138,3.3,23.4829570540019,10.0,0.0156555572767363,0.00889421950224731,0.0768566958796881,0.05324678230521,0.203590421671426,0.112418493273235,0
359,139,4.0,54.9863467622684,10.0,0.00399508583492581,0.00262599441237318,0.0679625624567982,0.0643581241065776,0.0838655850885996,0.0431220971620052,2
360,142,4.1,40.7949266937803,10.0,0.00576918308195732,0.00530739378897864,0.0368789561113149,0.039343095086346,0.0906514054967493,0.0709985698599677,2
361,142,4.1,23.3406489484475,10.0,0.00534017899176394,0.0103880126203466,0.0712457151303875,0.0594681152357819,0.169004182556206,0.0926029999151624,0
362,143,4.7,46.1819142954076,10.0,0.00795089591829698,0.0143197899141587,0.0962648328791141,0.0941134815104171,0.203354262982458,0.222268903457512,2
363,143,4.7,21.9352982889725,10.0,0.0539067590277074,0.026260679319643,0.271771844176429,0.204062022098687,2.18452055553237,0.773233509426063,0
364,145,7.9,447.744017676967,12.0,0.00568574505167896,0.00379028924859648,0.478391182266943,0.752577283437233,0.723728360906721,0.59499571512968,1
365,145,7.9,361.703337585436,12.0,0.020221062067296,0.00803656947355732,0.699619593926365,0.708822698716975,1.57131446342344,0.753440394970231,0
366,145,7.9,325.954722786219,12.0,0.0322054591911645,0.0170996884123786,1.6389061885398,0.691863018944403,3.45275280774857,1.53477701746085,0
367,145,7.9,318.645862610862,12.0,0.040345189508153,0.0180202136326621,1.76171903690771,0.488614704988786,4.65455085068641,1.50805750876507,0
368,145,7.9,342.432118883367,12.0,0.031170949637233,0.0198140126480038,1.73707539411073,0.563602027110798,4.9364619519515,1.31163078030617,0
369,145,7.9,411.818461849009,12.0,0.0161984308809886,0.00990722353084352,1.24110847945873,0.645733498425767,3.38585016890634,1.34046104445351,0
370,145,7.9,630.732901383483,12.0,0.011846380596592,0.0060286456596473,0.415922008573981,0.345629862827014,0.846920470926118,0.560722166197255,1
371,145,7.9,676.838800033866,12.0,0.00741053300495987,0.00373978287680475,0.456359133969587,0.194941294686109,1.01332491055104,0.329233220712799,0
372,145,7.9,509.66960433537,12.0,0.0097642080253983,0.00360571979482904,0.812849163774682,0.306214507671169,1.02525919068626,0.465026319480671,0
373,145,7.9,541.919907641788,12.0,0.00773288610594718,0.0034007308082072,1.1487468356071,0.463419102313289,1.16915690488883,0.624728854023137,0
374,145,7.9,587.419611318323,12.0,0.00472741486413101,0.00338354195335045,0.228607211859709,0.283656643790628,0.306174028779961,0.305084855774198,1
375,145,7.9,643.048120652855,12.0,0.00577344331755987,0.00266884424539858,1.09886681406442,0.353049528723251,1.39656297622512,0.469591100356348,0
376,145,7.9,760.888940443766,12.0,0.00409054873383609,0.00193219601205892,0.380388074729385,0.168429747803769,0.520389115465406,0.242206055665492,0
377,145,7.9,736.801284730349,12.0,0.00429413826597931,0.00297660055851426,0.491552577663974,0.205579242202765,0.569025190276275,0.320582619433136,0
378,145,7.9,667.01728467878,12.0,0.00279008469591699,0.00203160217014115,0.241055204566268,0.198410620567465,0.367140489983715,0.279903484394776,1
379,145,7.9,876.501092210048,12.0,0.00282818128560583,0.00120897986652124,0.532983818216928,0.220379507558567,0.614185596491118,0.327673464048296,0
380,145,7.9,955.901012953661,12.0,0.00234603845418498,0.000959273234449011,0.178448177561188,0.127259527427367,0.312661310045476,0.122839556867955,0
381,145,7.9,152.953523999601,12.0,0.0523267070002543,0.0494709124685008,24.9135634395497,7.15117184349596,17.4129921125779,5.9660522008928,1
382,145,7.9,515.991857473409,12.0,0.00835445918724597,0.00558731944540795,4.37353448380414,1.22240188640751,3.06939181333953,1.1949898761879,0
383,145,7.9,358.876585331254,12.0,0.0215119477908066,0.0134540777001038,6.25826835871454,6.00337044807111,5.61013069897518,2.30470905401602,0
384,145,7.9,331.488874670873,12.0,0.0383879030987933,0.022401605483922,71.6348508812228,42.9789494160464,28.4299662276749,14.3586052685284,1
385,145,7.9,445.612132611698,12.0,0.0122846439179252,0.028846376842882,7.02879792022568,52.9022818499646,4.09989605664682,17.6252885857742,0
386,145,7.9,437.377043364705,12.0,0.0133967295564279,0.00768165710586201,5.61445943235955,1.91287679328778,4.36016008149524,1.29528070764617,0
387,145,7.9,197.181868740465,12.0,0.0619260755832888,0.0158360616474923,19.5586007365615,6.11044809723179,18.5072502218845,4.51192373496707,1
388,145,7.9,150.045176412282,12.0,0.0837048672979073,0.0334145363949943,29.5251287453184,19.0784084515921,17.1811132215512,8.18071282421429,1
389,145,7.9,256.421636805,12.0,0.0407103783952834,0.0249991006397691,9.0198199386727,24.0602927699546,7.50574408876828,8.03730212522973,0
390,145,7.9,295.647541827388,12.0,0.0372008403131113,0.0184962528261309,11.4967927688815,2.90034401919089,7.49728036957052,2.39883589445323,0
391,145,7.9,29.5234634372474,12.0,0.208941363892674,0.141422053321526,27.8570638635592,31.5402260308469,30.1295315890005,29.9984637306057,1
392,145,7.9,29.1679811030562,12.0,0.146258420261501,0.129061200938406,52.4454924315683,44.2989248603079,68.2405021328528,38.2981711667023,0
393,145,7.9,29.6060014477614,12.0,0.141658294689473,0.18511677031857,59.1372540039034,34.5945034207114,63.5955612586127,41.6509639527665,0
394,145,7.9,29.3865700285556,12.0,0.22606483069511,0.133841708661256,49.1687796483588,29.1738000092042,89.5532354366306,32.7613357394177,0
395,145,7.9,26.0718317947307,12.0,0.155893240911946,0.157903002511733,82.6483211384131,27.313214064438,90.40849104329,27.8791970200067,0
396,146,6.7,439.158005145119,21.0,0.00156004716303074,0.00139226200350789,0.094111349993265,0.129734767361313,0.187104915168858,0.169857501941548,1
397,146,6.7,357.197204716477,21.0,0.00570567252233031,0.00234963029298325,0.272875336209275,0.149153793195208,0.609091848657083,0.294151096239224,0
398,146,6.7,285.088990611294,21.0,0.0275081599381952,0.00609685381355696,0.511871668285707,0.216808634418236,2.52885384658651,0.452377255765236,0
399,146,6.7,284.724077744538,21.0,0.0135222298496213,0.00602871576814667,0.330778169677278,0.178375101008957,1.14342592888813,0.337282979307258,0
400,146,6.7,314.008480412466,21.0,0.0164233634978686,0.00815946683792983,0.329284267471001,0.139744793279517,1.49651628979825,0.46614817182867,0
401,146,6.7,387.375240231312,21.0,0.00557772058213364,0.00294169848182493,0.436413795233573,0.176906570281557,0.912016419361889,0.533853732919136,0
402,146,6.7,600.744573910233,21.0,0.0031538248811056,0.00138919670009462,0.115321075457013,0.100945917930309,0.277311433894343,0.227667383462076,1
